{
  "type": "FeatureCollection",
  "features": [
    {
      "type": "Feature",
      "geometry": {
        "type": "Point",
        "coordinates": [
          114.45522308349611,
          34.48740876240659
        ]
      },
      "properties": {
        "title": "张光宣麻辣兔",
        "description": "好吃，不过有点辣，不能吃辣的慎点",
        "type": "2be06627-fddf-4ce6-8b7b-36610738ed57",
        "created_at": "2026-09-24T00:44:47.970Z"
      }
    },
    {
      "type": "Feature",
      "geometry": {
        "type": "Point",
        "coordinates": [
          116.36328756809236,
          39.886734702375705
        ]
      },
      "properties": {
        "title": "聚宝源",
        "description": "铜锅涮肉，超级好吃，强烈推荐（就是高峰期得排队）",
        "type": "2be06627-fddf-4ce6-8b7b-36610738ed57",
        "created_at": "2026-09-24T01:03:01.781Z"
      }
    },
    {
      "type": "Feature",
      "geometry": {
        "type": "Point",
        "coordinates": [
          120.34741875440554,
          36.0792425039337
        ]
      },
      "properties": {
        "title": "青岛啤酒博物馆",
        "description": "味道很不错👍",
        "type": "2be06627-fddf-4ce6-8b7b-36610738ed57",
        "created_at": "2026-09-30T09:21:10.085Z"
      }
    },
    {
      "type": "Feature",
      "geometry": {
        "type": "Point",
        "coordinates": [
          114.47782874107362,
          34.48256694250296
        ]
      },
      "properties": {
        "title": "刘记扣碗羊汤",
        "description": "羊肉特别新鲜，汤特别好喝👍",
        "type": "2be06627-fddf-4ce6-8b7b-36610738ed57",
        "created_at": "2026-10-04T04:13:18.006Z"
      }
    }
  ]
}