{
  "type": "FeatureCollection",
  "features": [
    {
      "type": "Feature",
      "geometry": {
        "type": "Point",
        "coordinates": [
          114.03945922851564,
          22.684984142872107
        ]
      },
      "properties": {
        "title": "test1",
        "description": "",
        "type": "4b537854-ffae-48dd-a8b6-c11662171c0c",
        "created_at": "2026-09-29T02:00:30.736Z"
      }
    },
    {
      "type": "Feature",
      "geometry": {
        "type": "Point",
        "coordinates": [
          120.49804687500001,
          33.394759218577995
        ]
      },
      "properties": {
        "title": "666",
        "description": "999",
        "type": "4b537854-ffae-48dd-a8b6-c11662171c0c",
        "created_at": "2026-09-29T03:47:44.940Z"
      }
    }
  ]
}