{
  "type": "FeatureCollection",
  "features": [
    {
      "type": "Feature",
      "geometry": {
        "type": "Point",
        "coordinates": [
          118.06715040690061,
          24.444611010627018
        ]
      },
      "properties": {
        "title": "鼓浪屿",
        "description": "风景不错，餐饮较贵",
        "type": "85fda8c7-8a2f-4d93-a2cd-f20731025156",
        "created_at": "2026-09-22T09:53:33.966Z"
      }
    },
    {
      "type": "Feature",
      "geometry": {
        "type": "Point",
        "coordinates": [
          116.18857383728029,
          39.99027326196773
        ]
      },
      "properties": {
        "title": "香山公园",
        "description": "秋季赏香山红叶，最好十一月份去观赏",
        "type": "85fda8c7-8a2f-4d93-a2cd-f20731025156",
        "created_at": "2026-09-24T00:47:25.589Z"
      }
    },
    {
      "type": "Feature",
      "geometry": {
        "type": "Point",
        "coordinates": [
          116.39164924621583,
          40.01877405076027
        ]
      },
      "properties": {
        "title": "奥林匹克森林公园",
        "description": "有很多猫猫，跑步锻炼身体的好地方",
        "type": "85fda8c7-8a2f-4d93-a2cd-f20731025156",
        "created_at": "2026-09-24T00:49:12.445Z"
      }
    },
    {
      "type": "Feature",
      "geometry": {
        "type": "Point",
        "coordinates": [
          116.41081094741821,
          39.881881541265315
        ]
      },
      "properties": {
        "title": "天坛公园",
        "description": "愿风调雨顺、国泰民安",
        "type": "85fda8c7-8a2f-4d93-a2cd-f20731025156",
        "created_at": "2026-09-24T00:51:22.973Z"
      }
    },
    {
      "type": "Feature",
      "geometry": {
        "type": "Point",
        "coordinates": [
          116.31980895996095,
          39.9168133417445
        ]
      },
      "properties": {
        "title": "玉渊潭公园",
        "description": "樱花开的时候，人比花多",
        "type": "85fda8c7-8a2f-4d93-a2cd-f20731025156",
        "created_at": "2026-09-24T00:52:18.165Z"
      }
    },
    {
      "type": "Feature",
      "geometry": {
        "type": "Point",
        "coordinates": [
          116.40300035476686,
          39.93751379563947
        ]
      },
      "properties": {
        "title": "南锣鼓巷",
        "description": "人挺多，环境一般，有人乱扔垃圾",
        "type": "85fda8c7-8a2f-4d93-a2cd-f20731025156",
        "created_at": "2026-09-24T00:55:06.414Z"
      }
    },
    {
      "type": "Feature",
      "geometry": {
        "type": "Point",
        "coordinates": [
          116.38660669326784,
          39.94261390008317
        ]
      },
      "properties": {
        "title": "什刹海",
        "description": "冬季可以溜冰",
        "type": "85fda8c7-8a2f-4d93-a2cd-f20731025156",
        "created_at": "2026-09-24T00:56:40.045Z"
      }
    },
    {
      "type": "Feature",
      "geometry": {
        "type": "Point",
        "coordinates": [
          116.38627409934999,
          39.93729168567961
        ]
      },
      "properties": {
        "title": "恭王府",
        "description": "和珅家还是有点说法的",
        "type": "85fda8c7-8a2f-4d93-a2cd-f20731025156",
        "created_at": "2026-09-24T00:57:30.038Z"
      }
    },
    {
      "type": "Feature",
      "geometry": {
        "type": "Point",
        "coordinates": [
          117.18670964241029,
          39.154486772242095
        ]
      },
      "properties": {
        "title": "天津之眼",
        "description": "下雨关了，没能坐上体验体验",
        "type": "85fda8c7-8a2f-4d93-a2cd-f20731025156",
        "created_at": "2026-09-24T01:10:45.741Z",
        "updated_at": "2026-09-30T09:44:47.531Z"
      }
    },
    {
      "type": "Feature",
      "geometry": {
        "type": "Point",
        "coordinates": [
          113.59097242355348,
          34.77660543927105
        ]
      },
      "properties": {
        "title": "月季花海",
        "description": "溜娃好去处",
        "type": "85fda8c7-8a2f-4d93-a2cd-f20731025156",
        "created_at": "2026-09-24T08:06:28.365Z"
      }
    },
    {
      "type": "Feature",
      "geometry": {
        "type": "Point",
        "coordinates": [
          120.12176513671876,
          30.225848323247735
        ]
      },
      "properties": {
        "title": "西湖",
        "description": "",
        "type": "85fda8c7-8a2f-4d93-a2cd-f20731025156",
        "created_at": "2026-09-24T08:21:42.802Z"
      }
    },
    {
      "type": "Feature",
      "geometry": {
        "type": "Point",
        "coordinates": [
          113.1376737934903,
          41.567649502897346
        ]
      },
      "properties": {
        "title": "乌兰哈达火山地质公园",
        "description": "火山太难爬了😭",
        "type": "85fda8c7-8a2f-4d93-a2cd-f20731025156",
        "created_at": "2026-09-30T09:08:00.967Z",
        "updated_at": "2026-09-30T09:43:11.667Z"
      }
    },
    {
      "type": "Feature",
      "geometry": {
        "type": "Point",
        "coordinates": [
          112.52938839117625,
          41.1358210700922
        ]
      },
      "properties": {
        "title": "黄花沟",
        "description": "景区一般，路上的风景绝了，太美了！",
        "type": "85fda8c7-8a2f-4d93-a2cd-f20731025156",
        "created_at": "2026-09-30T09:10:09.959Z",
        "updated_at": "2026-09-30T09:41:50.627Z"
      }
    },
    {
      "type": "Feature",
      "geometry": {
        "type": "Point",
        "coordinates": [
          120.49054232566282,
          36.09245455851266
        ]
      },
      "properties": {
        "title": "石老人",
        "description": "天没亮就来看日出了",
        "type": "85fda8c7-8a2f-4d93-a2cd-f20731025156",
        "created_at": "2026-09-30T09:13:49.950Z"
      }
    },
    {
      "type": "Feature",
      "geometry": {
        "type": "Point",
        "coordinates": [
          120.32049340069472,
          36.058496774568525
        ]
      },
      "properties": {
        "title": "栈桥",
        "description": "可以搞点面包来喂鸟",
        "type": "85fda8c7-8a2f-4d93-a2cd-f20731025156",
        "created_at": "2026-09-30T09:16:14.710Z"
      }
    },
    {
      "type": "Feature",
      "geometry": {
        "type": "Point",
        "coordinates": [
          120.43132389075431,
          36.05395259522287
        ]
      },
      "properties": {
        "title": "小麦岛公园",
        "description": "去的那天下雨了，略有遗憾",
        "type": "85fda8c7-8a2f-4d93-a2cd-f20731025156",
        "created_at": "2026-09-30T09:22:35.182Z"
      }
    }
  ]
}