{
  "type": "FeatureCollection",
  "features": [
    {
      "type": "Feature",
      "geometry": {
        "type": "Point",
        "coordinates": [
          116.45830299060569,
          39.87561253977976
        ]
      },
      "properties": {
        "title": "潘家园",
        "description": "各种各样奇奇怪怪的玩意儿",
        "type": "b0e6ad95-b711-4ba8-a5f4-bcde6fb7a394",
        "created_at": "2026-09-30T09:35:21.228Z"
      }
    },
    {
      "type": "Feature",
      "geometry": {
        "type": "Point",
        "coordinates": [
          117.21579178023028,
          39.133330699406415
        ]
      },
      "properties": {
        "title": "李公楼地道",
        "description": "令人眼花缭乱的涂鸦，画的真不错！",
        "type": "b0e6ad95-b711-4ba8-a5f4-bcde6fb7a394",
        "created_at": "2026-09-30T09:39:46.788Z",
        "updated_at": "2026-09-30T09:41:15.363Z"
      }
    }
  ]
}