{
  "type": "FeatureCollection",
  "features": [
    {
      "type": "Feature",
      "geometry": {
        "type": "Point",
        "coordinates": [
          113.77752006053926,
          34.843808410099896
        ]
      },
      "properties": {
        "title": "大柳树下",
        "description": "出鲤鱼、鲫鱼、翘嘴、黄辣丁、白条、鳑鲏",
        "type": "c39c7221-216f-454a-814d-52ac0af788cd",
        "created_at": "2026-09-22T09:38:36.641Z"
      }
    },
    {
      "type": "Feature",
      "geometry": {
        "type": "Point",
        "coordinates": [
          113.78870487213136,
          34.83347475255869
        ]
      },
      "properties": {
        "title": "桥下",
        "description": "走水，易挂底，出鲫鱼、鲤鱼、白条",
        "type": "c39c7221-216f-454a-814d-52ac0af788cd",
        "created_at": "2026-09-22T09:40:14.112Z",
        "updated_at": "2026-09-29T03:30:06.722Z"
      }
    },
    {
      "type": "Feature",
      "geometry": {
        "type": "Point",
        "coordinates": [
          116.42259120941164,
          40.05729857770041
        ]
      },
      "properties": {
        "title": "桥下",
        "description": "易挂底，出鲫鱼、鲤鱼、白条、马口、笋壳鱼",
        "type": "c39c7221-216f-454a-814d-52ac0af788cd",
        "created_at": "2026-09-24T01:09:06.493Z"
      }
    }
  ]
}