{
  "type": "FeatureCollection",
  "features": [
    {
      "type": "Feature",
      "geometry": {
        "type": "Point",
        "coordinates": [
          113.77752006053926,
          34.843808410099896
        ]
      },
      "properties": {
        "title": "大柳树下",
        "description": "出鲤鱼、鲫鱼、翘嘴、黄辣丁、白条、鳑鲏",
        "type": "t_muca0y5e3au6",
        "created_at": "2026-09-22T09:38:36.641Z"
      }
    },
    {
      "type": "Feature",
      "geometry": {
        "type": "Point",
        "coordinates": [
          113.78870487213136,
          34.83347475255869
        ]
      },
      "properties": {
        "title": "桥下",
        "description": "走水，易挂底，出鲫鱼、鲤鱼",
        "type": "t_muca0y5e3au6",
        "created_at": "2026-09-22T09:40:14.112Z"
      }
    }
  ]
}